{
  "links" : {
    "next" : "https://api.nasa.gov/neo/rest/v1/feed?start_date=2009-09-16&end_date=2009-09-16&detailed=true&api_key=t0TVs3DtDT2H8Oy2Zy8m2eVrNsAVKAexjcZXUckd",
    "prev" : "https://api.nasa.gov/neo/rest/v1/feed?start_date=2009-09-14&end_date=2009-09-14&detailed=true&api_key=t0TVs3DtDT2H8Oy2Zy8m2eVrNsAVKAexjcZXUckd",
    "self" : "https://api.nasa.gov/neo/rest/v1/feed?start_date=2009-09-15&end_date=2009-09-15&detailed=true&api_key=t0TVs3DtDT2H8Oy2Zy8m2eVrNsAVKAexjcZXUckd"
  },
  "element_count" : 5,
  "near_earth_objects" : {
    "2009-09-15" : [ {
      "links" : {
        "self" : "https://api.nasa.gov/neo/rest/v1/neo/3699902?api_key=t0TVs3DtDT2H8Oy2Zy8m2eVrNsAVKAexjcZXUckd"
      },
      "neo_reference_id" : "3699902",
      "name" : "(2014 UV210)",
      "nasa_jpl_url" : "http://ssd.jpl.nasa.gov/sbdb.cgi?sstr=3699902",
      "absolute_magnitude_h" : 26.9,
      "estimated_diameter" : {
        "kilometers" : {
          "estimated_diameter_min" : 0.0110803882,
          "estimated_diameter_max" : 0.0247765013
        },
        "meters" : {
          "estimated_diameter_min" : 11.0803882126,
          "estimated_diameter_max" : 24.7765012606
        },
        "miles" : {
          "estimated_diameter_min" : 0.0068850319,
          "estimated_diameter_max" : 0.0153953994
        },
        "feet" : {
          "estimated_diameter_min" : 36.3529808636,
          "estimated_diameter_max" : 81.2877363957
        }
      },
      "is_potentially_hazardous_asteroid" : false,
      "close_approach_data" : [ {
        "close_approach_date" : "2009-09-15",
        "epoch_date_close_approach" : 1252998000000,
        "relative_velocity" : {
          "kilometers_per_second" : "1.968980134",
          "kilometers_per_hour" : "7088.3284822336",
          "miles_per_hour" : "4404.4116616412"
        },
        "miss_distance" : {
          "astronomical" : "0.1601351841",
          "lunar" : "62.2925834656",
          "kilometers" : "23955882",
          "miles" : "14885495"
        },
        "orbiting_body" : "Earth"
      } ],
      "orbital_data" : {
        "orbit_id" : "23",
        "orbit_determination_date" : "2017-04-06 08:37:35",
        "orbit_uncertainty" : "1",
        "minimum_orbit_intersection" : ".0205717",
        "jupiter_tisserand_invariant" : "5.425",
        "epoch_osculation" : "2458000.5",
        "eccentricity" : ".133913817757884",
        "semi_major_axis" : "1.159004216610058",
        "inclination" : ".5961962327169534",
        "ascending_node_longitude" : "92.6149527105506",
        "orbital_period" : "455.7492376338204",
        "perihelion_distance" : "1.00379753716632",
        "perihelion_argument" : "350.6036773059853",
        "aphelion_distance" : "1.314210896053797",
        "perihelion_time" : "2457918.534502980913",
        "mean_anomaly" : "64.74520743045002",
        "mean_motion" : ".7899080684568215",
        "equinox" : "J2000"
      }
    }, {
      "links" : {
        "self" : "https://api.nasa.gov/neo/rest/v1/neo/3467261?api_key=t0TVs3DtDT2H8Oy2Zy8m2eVrNsAVKAexjcZXUckd"
      },
      "neo_reference_id" : "3467261",
      "name" : "(2009 SL2)",
      "nasa_jpl_url" : "http://ssd.jpl.nasa.gov/sbdb.cgi?sstr=3467261",
      "absolute_magnitude_h" : 22.1,
      "estimated_diameter" : {
        "kilometers" : {
          "estimated_diameter_min" : 0.1010543415,
          "estimated_diameter_max" : 0.2259643771
        },
        "meters" : {
          "estimated_diameter_min" : 101.054341542,
          "estimated_diameter_max" : 225.9643771094
        },
        "miles" : {
          "estimated_diameter_min" : 0.0627922373,
          "estimated_diameter_max" : 0.140407711
        },
        "feet" : {
          "estimated_diameter_min" : 331.5431259047,
          "estimated_diameter_max" : 741.3529669956
        }
      },
      "is_potentially_hazardous_asteroid" : false,
      "close_approach_data" : [ {
        "close_approach_date" : "2009-09-15",
        "epoch_date_close_approach" : 1252998000000,
        "relative_velocity" : {
          "kilometers_per_second" : "13.9314267384",
          "kilometers_per_hour" : "50153.1362581421",
          "miles_per_hour" : "31163.2084710661"
        },
        "miss_distance" : {
          "astronomical" : "0.1625762514",
          "lunar" : "63.2421646118",
          "kilometers" : "24321062",
          "miles" : "15112407"
        },
        "orbiting_body" : "Earth"
      } ],
      "orbital_data" : {
        "orbit_id" : "10",
        "orbit_determination_date" : "2017-04-06 08:59:56",
        "orbit_uncertainty" : "6",
        "minimum_orbit_intersection" : ".150051",
        "jupiter_tisserand_invariant" : "5.768",
        "epoch_osculation" : "2458000.5",
        "eccentricity" : ".2489470689354046",
        "semi_major_axis" : "1.046304081911189",
        "inclination" : "23.73870968884856",
        "ascending_node_longitude" : "4.972058517926767",
        "orbital_period" : "390.9176742630271",
        "perihelion_distance" : ".7858297475042493",
        "perihelion_argument" : "224.6271748065314",
        "aphelion_distance" : "1.306778416318129",
        "perihelion_time" : "2458115.624486235193",
        "mean_anomaly" : "253.9807080280957",
        "mean_motion" : ".9209100117529496",
        "equinox" : "J2000"
      }
    } ]
  }
}